[{"OBJECT_NAME":"STARLINK-35934","OBJECT_ID":"2026-014L","EPOCH":"2026-03-09T16:09:01.841472","MEAN_MOTION":15.75208634,"ECCENTRICITY":0.00016833,"INCLINATION":97.2843,"RA_OF_ASC_NODE":313.6495,"ARG_OF_PERICENTER":34.4185,"MEAN_ANOMALY":325.7189,"EPHEMERIS_TYPE":0,"CLASSIFICATION_TYPE":"U","NORAD_CAT_ID":67542,"ELEMENT_SET_NO":999,"REV_AT_EPOCH":856,"BSTAR":0.0011325647,"MEAN_MOTION_DOT":0.00172393,"MEAN_MOTION_DDOT":0},{"OBJECT_NAME":"WT 1A","OBJECT_ID":"2019-032F","EPOCH":"2026-03-09T22:33:15.206112","MEAN_MOTION":15.7566877,"ECCENTRICITY":0.00079486,"INCLINATION":44.975,"RA_OF_ASC_NODE":76.6684,"ARG_OF_PERICENTER":87.7,"MEAN_ANOMALY":272.4811,"EPHEMERIS_TYPE":0,"CLASSIFICATION_TYPE":"U","NORAD_CAT_ID":44315,"ELEMENT_SET_NO":999,"REV_AT_EPOCH":37389,"BSTAR":0.0012390673,"MEAN_MOTION_DOT":0.00199702,"MEAN_MOTION_DDOT":0}]
